{"type":"FeatureCollection","features":[{"type":"Feature","properties":{"id":"freiburg","name":"Freiburg im Breisgau"},"geometry":{"type":"Polygon","coordinates":[[[7.9028,47.91233],[7.90353,47.91262],[7.90461,47.91308],[7.90487,47.91344],[7.90711,47.91394],[7.90841,47.91432],[7.90953,47.91544],[7.90991,47.91747],[7.91005,47.91823],[7.90919,47.91958],[7.90841,47.92112],[7.90744,47.92317],[7.90664,47.92434],[7.90812,47.92801],[7.90829,47.92847],[7.9091,47.92908],[7.91116,47.92935],[7.9118,47.92964],[7.9126,47.92976],[7.91411,47.93084],[7.91464,47.93128],[7.91494,47.93167],[7.9158,47.93355],[7.91692,47.93479],[7.91726,47.93508],[7.91819,47.93518],[7.91851,47.93529],[7.91862,47.93543],[7.91881,47.93552],[7.91971,47.93559],[7.92002,47.93567],[7.92199,47.93684],[7.92212,47.93696],[7.92242,47.93724],[7.92249,47.93733],[7.92257,47.93742],[7.92323,47.9382],[7.92384,47.93879],[7.92417,47.93931],[7.92487,47.94009],[7.92434,47.94084],[7.9242,47.94124],[7.92418,47.94148],[7.92465,47.94379],[7.92492,47.94457],[7.92492,47.94475],[7.92492,47.94502],[7.92475,47.94582],[7.92458,47.94647],[7.92426,47.94723],[7.92425,47.94769],[7.92435,47.94797],[7.92435,47.94858],[7.92417,47.94924],[7.92418,47.94953],[7.92436,47.95011],[7.92414,47.95019],[7.92429,47.95051],[7.92474,47.95104],[7.92373,47.95136],[7.92331,47.95182],[7.92261,47.95221],[7.92202,47.95269],[7.9213,47.95305],[7.92073,47.95344],[7.9198,47.95421],[7.91935,47.95496],[7.91913,47.95533],[7.91894,47.95572],[7.91895,47.956],[7.91874,47.9567],[7.9191,47.95728],[7.91716,47.95805],[7.91701,47.95859],[7.91722,47.95899],[7.91714,47.95914],[7.9168,47.9594],[7.91608,47.96023],[7.91589,47.9607],[7.91568,47.96169],[7.91534,47.96232],[7.91473,47.96294],[7.91512,47.96341],[7.9152,47.96444],[7.91524,47.96502],[7.91549,47.96547],[7.91592,47.96587],[7.91638,47.96618],[7.91651,47.96626],[7.91699,47.96658],[7.91783,47.96726],[7.91798,47.96762],[7.9197,47.96734],[7.92179,47.96744],[7.92198,47.96831],[7.92263,47.96967],[7.92371,47.96987],[7.92438,47.97059],[7.92452,47.97074],[7.92433,47.97094],[7.92393,47.97126],[7.92332,47.97163],[7.92268,47.97192],[7.92159,47.97236],[7.92111,47.97258],[7.92167,47.97346],[7.92144,47.97361],[7.92138,47.97365],[7.92143,47.97367],[7.92138,47.9737],[7.92127,47.97381],[7.9209,47.97409],[7.92066,47.97446],[7.92049,47.9745],[7.92026,47.97451],[7.9198,47.97448],[7.91957,47.97448],[7.91941,47.9745],[7.91869,47.97468],[7.91846,47.97465],[7.91815,47.97459],[7.91789,47.97462],[7.91761,47.97473],[7.91746,47.97488],[7.91739,47.97503],[7.91738,47.97515],[7.9174,47.97526],[7.91751,47.9754],[7.91766,47.97553],[7.91782,47.97573],[7.9178,47.97587],[7.91775,47.97602],[7.91755,47.97618],[7.91733,47.97624],[7.91693,47.97639],[7.91667,47.97657],[7.91642,47.97678],[7.91633,47.97686],[7.9162,47.97717],[7.91606,47.9774],[7.9158,47.97756],[7.91538,47.97781],[7.91518,47.97799],[7.91487,47.97847],[7.9147,47.97873],[7.91451,47.97896],[7.91435,47.97911],[7.91398,47.97941],[7.91409,47.97941],[7.91495,47.97941],[7.91599,47.97953],[7.92441,47.98084],[7.92489,47.98087],[7.92507,47.98117],[7.92522,47.98166],[7.92521,47.98193],[7.92526,47.98251],[7.92532,47.98302],[7.92524,47.98515],[7.92523,47.98527],[7.92519,47.98553],[7.92764,47.98573],[7.92771,47.9857],[7.92831,47.98583],[7.92806,47.98614],[7.92783,47.98638],[7.9275,47.98665],[7.92683,47.9871],[7.92668,47.98725],[7.92669,47.98727],[7.92669,47.98734],[7.92682,47.98751],[7.92689,47.98761],[7.92687,47.98767],[7.92685,47.98769],[7.92687,47.98774],[7.92716,47.98818],[7.92753,47.98867],[7.92766,47.98923],[7.92928,47.98862],[7.93019,47.98985],[7.9303,47.9901],[7.93039,47.99057],[7.93057,47.99075],[7.9308,47.99099],[7.93084,47.99113],[7.93055,47.99169],[7.93052,47.99189],[7.93067,47.99227],[7.93059,47.99247],[7.92996,47.99364],[7.92995,47.99445],[7.9302,47.99507],[7.9302,47.99539],[7.92967,47.99623],[7.92906,47.99671],[7.92912,47.99719],[7.92933,47.99754],[7.928,47.99865],[7.92802,47.99941],[7.92791,47.99972],[7.92752,48.00019],[7.92728,48.00067],[7.92717,48.0011],[7.92721,48.00134],[7.92777,48.002],[7.92815,48.0026],[7.92803,48.00485],[7.92785,48.00598],[7.92863,48.00823],[7.92863,48.00855],[7.92839,48.00882],[7.9282,48.01085],[7.92779,48.01116],[7.92733,48.01242],[7.92699,48.01284],[7.92664,48.01313],[7.92627,48.01381],[7.92546,48.0139],[7.92455,48.01406],[7.92388,48.01434],[7.92344,48.01476],[7.92298,48.01508],[7.9224,48.0153],[7.92188,48.01563],[7.92,48.01496],[7.91912,48.01455],[7.91773,48.01405],[7.9167,48.01373],[7.9166,48.01369],[7.91563,48.01296],[7.91496,48.0127],[7.91468,48.0124],[7.91426,48.01207],[7.9142,48.01213],[7.91294,48.01187],[7.91237,48.01224],[7.91187,48.0125],[7.91148,48.01273],[7.91073,48.01302],[7.91038,48.01297],[7.9102,48.0129],[7.90947,48.0129],[7.90821,48.01314],[7.90777,48.01319],[7.90722,48.01325],[7.90651,48.01296],[7.90624,48.01293],[7.90581,48.01283],[7.90495,48.01281],[7.90402,48.01237],[7.90363,48.01192],[7.90351,48.01153],[7.90316,48.01119],[7.9021,48.01045],[7.90172,48.01002],[7.90051,48.01004],[7.89893,48.0101],[7.8971,48.01014],[7.895,48.0102],[7.89121,48.01029],[7.88964,48.01018],[7.88769,48.01024],[7.8874,48.01035],[7.887,48.01049],[7.88656,48.01062],[7.88611,48.01076],[7.88482,48.01129],[7.88435,48.01171],[7.88417,48.01177],[7.88297,48.01201],[7.88211,48.01236],[7.88095,48.01257],[7.87935,48.01295],[7.87863,48.01328],[7.87612,48.01411],[7.87584,48.01431],[7.87468,48.01511],[7.87404,48.01521],[7.87303,48.01592],[7.8725,48.01652],[7.87245,48.01664],[7.87236,48.01718],[7.87236,48.01751],[7.87253,48.01909],[7.87285,48.01962],[7.87312,48.01987],[7.87382,48.0203],[7.87442,48.02038],[7.87565,48.02109],[7.87606,48.02106],[7.87671,48.02081],[7.87705,48.02061],[7.8774,48.02057],[7.87781,48.0203],[7.87779,48.02016],[7.87803,48.02011],[7.87822,48.02001],[7.87846,48.01998],[7.87861,48.01977],[7.87906,48.01953],[7.87915,48.01934],[7.87987,48.01894],[7.88049,48.01954],[7.88133,48.01999],[7.88309,48.02073],[7.88437,48.02139],[7.88447,48.02127],[7.88484,48.02077],[7.88523,48.02058],[7.88595,48.02002],[7.88632,48.01959],[7.88635,48.01931],[7.8862,48.01888],[7.88638,48.01857],[7.88656,48.01842],[7.88727,48.01803],[7.88777,48.01763],[7.88826,48.01734],[7.88846,48.01723],[7.88851,48.01685],[7.88902,48.01657],[7.8894,48.0165],[7.88955,48.01653],[7.89211,48.01688],[7.89304,48.01666],[7.89412,48.01658],[7.89468,48.01645],[7.89505,48.01627],[7.89571,48.0158],[7.89645,48.01549],[7.89706,48.01544],[7.89757,48.01537],[7.89783,48.01548],[7.898,48.01554],[7.89783,48.01575],[7.89717,48.01671],[7.89705,48.01689],[7.89636,48.01755],[7.89556,48.01814],[7.89495,48.01849],[7.89425,48.01886],[7.89394,48.01907],[7.89341,48.01928],[7.89303,48.0193],[7.89236,48.01928],[7.89092,48.01929],[7.89025,48.01975],[7.88964,48.02013],[7.88879,48.02031],[7.88802,48.02081],[7.88746,48.0211],[7.88678,48.02156],[7.88666,48.02165],[7.88636,48.02219],[7.88599,48.02266],[7.88499,48.02292],[7.88481,48.02282],[7.88461,48.0227],[7.88448,48.02262],[7.88429,48.02239],[7.88391,48.02224],[7.88367,48.02219],[7.88313,48.02242],[7.88288,48.02242],[7.88235,48.02247],[7.88225,48.0225],[7.88206,48.02274],[7.88181,48.02306],[7.88168,48.02324],[7.88162,48.02336],[7.88153,48.02345],[7.88141,48.02362],[7.88133,48.02374],[7.88126,48.02391],[7.88118,48.02402],[7.88074,48.02495],[7.88019,48.02548],[7.8796,48.02604],[7.87852,48.02686],[7.87844,48.027],[7.87807,48.02796],[7.87779,48.02844],[7.8767,48.02978],[7.87613,48.03061],[7.87576,48.03118],[7.8755,48.03133],[7.87473,48.03099],[7.87402,48.03059],[7.87378,48.03043],[7.87344,48.0302],[7.87328,48.03003],[7.87304,48.02956],[7.87283,48.02955],[7.87281,48.02969],[7.87257,48.02981],[7.87224,48.02981],[7.87208,48.02974],[7.8718,48.02973],[7.87103,48.02988],[7.87092,48.03064],[7.87081,48.03081],[7.87063,48.03106],[7.87071,48.0311],[7.8709,48.03112],[7.87087,48.03118],[7.87057,48.03178],[7.87031,48.03213],[7.87008,48.03227],[7.86971,48.03248],[7.86942,48.03261],[7.8691,48.03274],[7.86842,48.03305],[7.86817,48.03316],[7.86808,48.0332],[7.86794,48.03326],[7.8677,48.03346],[7.86751,48.03361],[7.86736,48.03372],[7.86721,48.03392],[7.86699,48.03407],[7.86689,48.03411],[7.86668,48.0342],[7.86638,48.03432],[7.86622,48.03438],[7.86566,48.03455],[7.86515,48.03474],[7.86471,48.03488],[7.86437,48.03496],[7.86397,48.03505],[7.8639,48.03507],[7.86388,48.03507],[7.86377,48.03509],[7.86365,48.03511],[7.86351,48.03513],[7.86335,48.03514],[7.86246,48.03522],[7.86166,48.03521],[7.8613,48.03512],[7.86115,48.03509],[7.86109,48.03508],[7.86101,48.03505],[7.86094,48.03504],[7.86085,48.03503],[7.86079,48.03503],[7.86071,48.03502],[7.86051,48.035],[7.86038,48.03499],[7.86017,48.03506],[7.86,48.03512],[7.85948,48.03528],[7.85881,48.03542],[7.85871,48.03546],[7.85854,48.03559],[7.85719,48.03623],[7.85714,48.03646],[7.85628,48.03669],[7.85592,48.03676],[7.85545,48.03688],[7.85442,48.03665],[7.85434,48.03717],[7.8543,48.03767],[7.85431,48.03987],[7.85448,48.0402],[7.85438,48.0419],[7.85436,48.04207],[7.85429,48.04217],[7.85422,48.04245],[7.85413,48.04337],[7.85412,48.04392],[7.85383,48.04464],[7.85364,48.04485],[7.85361,48.04489],[7.85361,48.04491],[7.8535,48.04513],[7.85338,48.0456],[7.85312,48.04652],[7.85223,48.04836],[7.85128,48.05029],[7.85119,48.05043],[7.85117,48.05051],[7.85113,48.05054],[7.85111,48.05056],[7.85098,48.05072],[7.85037,48.05136],[7.84864,48.05189],[7.84779,48.05213],[7.847,48.05227],[7.8464,48.05233],[7.84616,48.05238],[7.84602,48.05243],[7.84581,48.05258],[7.84525,48.05298],[7.84444,48.05356],[7.84316,48.05447],[7.84187,48.05488],[7.84038,48.05536],[7.83925,48.05572],[7.83845,48.05625],[7.83587,48.05792],[7.83478,48.05863],[7.83408,48.05957],[7.83359,48.06048],[7.83274,48.06157],[7.83248,48.06186],[7.83213,48.06209],[7.83184,48.06232],[7.83097,48.06293],[7.83059,48.06319],[7.82996,48.06365],[7.82912,48.06426],[7.82789,48.06525],[7.82742,48.0656],[7.82688,48.06613],[7.82675,48.06629],[7.82655,48.06651],[7.82613,48.06699],[7.82567,48.0675],[7.82553,48.06768],[7.82526,48.06805],[7.82509,48.06823],[7.82501,48.06835],[7.82491,48.06853],[7.82486,48.06866],[7.82476,48.0689],[7.82446,48.06901],[7.82367,48.06934],[7.8232,48.06954],[7.82276,48.06972],[7.82226,48.06993],[7.82163,48.07005],[7.82095,48.07019],[7.82052,48.07027],[7.82009,48.07036],[7.81971,48.07018],[7.81894,48.06992],[7.8178,48.06957],[7.81766,48.06955],[7.81754,48.06957],[7.81742,48.06962],[7.81495,48.07106],[7.8109,48.06808],[7.80824,48.06607],[7.80669,48.06489],[7.8052,48.06375],[7.80583,48.06299],[7.80609,48.06237],[7.80589,48.0619],[7.80572,48.06184],[7.80537,48.06169],[7.80462,48.06139],[7.80419,48.06124],[7.80403,48.06118],[7.80385,48.06112],[7.80382,48.06112],[7.80367,48.06107],[7.8035,48.06103],[7.80326,48.06103],[7.80277,48.06104],[7.80275,48.06104],[7.80273,48.06104],[7.80207,48.06106],[7.80184,48.06107],[7.80113,48.06105],[7.80083,48.06104],[7.80012,48.06101],[7.79917,48.06098],[7.79859,48.06098],[7.79734,48.061],[7.7969,48.06099],[7.79648,48.06097],[7.79634,48.06096],[7.79631,48.06089],[7.79596,48.06001],[7.79596,48.05999],[7.79594,48.05997],[7.79558,48.05919],[7.79549,48.05903],[7.79553,48.05903],[7.79561,48.05903],[7.79634,48.05899],[7.79697,48.05898],[7.79653,48.05805],[7.79651,48.05801],[7.79595,48.05692],[7.79593,48.05689],[7.79529,48.05552],[7.79526,48.05547],[7.79525,48.05543],[7.79545,48.05531],[7.79438,48.05462],[7.793,48.05371],[7.79293,48.05366],[7.79291,48.05365],[7.79288,48.05363],[7.79293,48.05363],[7.79306,48.05362],[7.79364,48.05359],[7.7939,48.05357],[7.79432,48.05356],[7.79492,48.05355],[7.79512,48.05356],[7.79542,48.05355],[7.79606,48.05353],[7.79628,48.05347],[7.79615,48.05303],[7.79603,48.05266],[7.79601,48.0526],[7.796,48.05258],[7.796,48.05254],[7.79597,48.05248],[7.79517,48.05218],[7.79506,48.05158],[7.79503,48.05143],[7.79502,48.05135],[7.79478,48.04963],[7.79456,48.04889],[7.79448,48.04863],[7.7944,48.04839],[7.79433,48.04799],[7.79428,48.04755],[7.7942,48.047],[7.79405,48.04652],[7.79383,48.0461],[7.79354,48.04563],[7.79317,48.04509],[7.79313,48.04503],[7.79405,48.04475],[7.79341,48.04382],[7.79339,48.04377],[7.79331,48.04378],[7.79322,48.04375],[7.79318,48.04373],[7.79288,48.04362],[7.79126,48.04291],[7.79197,48.04243],[7.79174,48.04226],[7.79173,48.04221],[7.7917,48.04204],[7.79106,48.03957],[7.79089,48.0389],[7.79081,48.03858],[7.79076,48.03839],[7.79056,48.03738],[7.79043,48.03663],[7.78997,48.03605],[7.78791,48.03321],[7.78812,48.03276],[7.78738,48.03278],[7.78729,48.03264],[7.78728,48.03263],[7.78715,48.03237],[7.78693,48.03207],[7.78844,48.02998],[7.78983,48.02815],[7.79015,48.02765],[7.79034,48.02736],[7.79024,48.0273],[7.79019,48.02727],[7.78932,48.02675],[7.78912,48.02666],[7.78844,48.02625],[7.78747,48.02578],[7.78684,48.02554],[7.78644,48.02541],[7.78617,48.02532],[7.78587,48.02527],[7.78548,48.02525],[7.7848,48.02526],[7.78313,48.02531],[7.78223,48.02533],[7.7818,48.0254],[7.78148,48.02555],[7.78133,48.02561],[7.78114,48.02573],[7.78098,48.02589],[7.78058,48.02571],[7.7802,48.02545],[7.78028,48.0254],[7.78038,48.02532],[7.78056,48.02518],[7.78114,48.02465],[7.78118,48.02448],[7.78119,48.02445],[7.78124,48.0242],[7.78125,48.02366],[7.78123,48.0233],[7.78118,48.023],[7.78113,48.02278],[7.78094,48.02253],[7.78062,48.02224],[7.78033,48.02202],[7.77997,48.02171],[7.77975,48.02157],[7.77924,48.02125],[7.77841,48.02074],[7.77753,48.0202],[7.77644,48.01953],[7.77588,48.01917],[7.77442,48.0182],[7.77329,48.01736],[7.77186,48.01637],[7.77114,48.0158],[7.76936,48.01434],[7.76972,48.01499],[7.76977,48.01511],[7.76966,48.01596],[7.76957,48.01708],[7.76783,48.01791],[7.76762,48.01833],[7.76748,48.0185],[7.76659,48.01911],[7.76633,48.0192],[7.76589,48.01932],[7.76483,48.0195],[7.7642,48.01968],[7.7638,48.01981],[7.76343,48.01995],[7.76271,48.02035],[7.76256,48.02046],[7.76247,48.02055],[7.76244,48.02066],[7.76247,48.02073],[7.76263,48.02095],[7.76194,48.02112],[7.76165,48.02121],[7.76054,48.02148],[7.76022,48.02163],[7.7598,48.02184],[7.75898,48.02222],[7.75884,48.02195],[7.75879,48.02185],[7.75878,48.02175],[7.75877,48.02162],[7.75888,48.0213],[7.75892,48.02101],[7.75893,48.02026],[7.75882,48.01994],[7.75819,48.01884],[7.75759,48.01906],[7.75403,48.0203],[7.7514,48.02142],[7.75159,48.02284],[7.75153,48.02294],[7.75098,48.02327],[7.75021,48.02371],[7.74942,48.02412],[7.74865,48.02458],[7.74807,48.02494],[7.74753,48.0253],[7.74744,48.02536],[7.74734,48.02543],[7.74729,48.02546],[7.74711,48.02557],[7.7468,48.02564],[7.74666,48.02563],[7.74623,48.02572],[7.74612,48.02581],[7.74629,48.02636],[7.74393,48.02666],[7.7439,48.02693],[7.74325,48.02704],[7.74305,48.02734],[7.74252,48.0276],[7.74184,48.02767],[7.74174,48.02807],[7.74103,48.02835],[7.74036,48.02897],[7.74009,48.02991],[7.73943,48.02978],[7.73887,48.03011],[7.73838,48.03046],[7.73781,48.03087],[7.737,48.03081],[7.73633,48.03119],[7.73604,48.03136],[7.73564,48.0318],[7.73513,48.03209],[7.73381,48.03282],[7.7338,48.0329],[7.73373,48.03359],[7.73383,48.03374],[7.73391,48.03398],[7.73407,48.03448],[7.73437,48.03601],[7.7345,48.03644],[7.7342,48.03665],[7.73346,48.03727],[7.73327,48.03744],[7.73337,48.03775],[7.73364,48.03839],[7.73359,48.03877],[7.73343,48.03869],[7.73331,48.03862],[7.73295,48.03846],[7.73272,48.03836],[7.7326,48.03834],[7.73238,48.03835],[7.73212,48.03838],[7.73182,48.03842],[7.7315,48.03786],[7.73075,48.03822],[7.73053,48.03829],[7.73035,48.03825],[7.72918,48.03737],[7.72913,48.03737],[7.72882,48.03742],[7.72806,48.03693],[7.72789,48.03682],[7.72775,48.03668],[7.72759,48.03647],[7.72751,48.03636],[7.72726,48.03576],[7.7272,48.03577],[7.72709,48.03578],[7.72649,48.03582],[7.72645,48.03572],[7.72638,48.03572],[7.72635,48.03573],[7.72633,48.03573],[7.7259,48.03574],[7.72584,48.03569],[7.72529,48.03503],[7.72404,48.03515],[7.72359,48.03448],[7.72349,48.03432],[7.72347,48.03428],[7.72334,48.03419],[7.72313,48.03424],[7.72304,48.03427],[7.72294,48.03427],[7.72281,48.03425],[7.72277,48.03424],[7.72264,48.03421],[7.7224,48.0341],[7.72203,48.03399],[7.72178,48.03387],[7.72175,48.03385],[7.72163,48.0338],[7.7216,48.03382],[7.72158,48.03384],[7.72156,48.03385],[7.72061,48.03429],[7.7206,48.0343],[7.72058,48.03431],[7.72056,48.03431],[7.72049,48.03423],[7.72017,48.03427],[7.71967,48.03433],[7.71965,48.03434],[7.7196,48.03434],[7.71956,48.03435],[7.71963,48.0346],[7.71964,48.03463],[7.71962,48.03464],[7.71873,48.03475],[7.71869,48.03475],[7.71866,48.03475],[7.71862,48.03476],[7.71855,48.03433],[7.71854,48.03431],[7.71806,48.03433],[7.718,48.03433],[7.71785,48.03434],[7.71774,48.03435],[7.71761,48.03437],[7.71687,48.03446],[7.71674,48.03447],[7.71672,48.03439],[7.7167,48.03428],[7.71666,48.03416],[7.71667,48.03408],[7.7167,48.03387],[7.71671,48.03364],[7.71664,48.03344],[7.71631,48.03339],[7.71627,48.03339],[7.71621,48.03338],[7.71614,48.03337],[7.7159,48.03334],[7.71556,48.03329],[7.71553,48.03329],[7.71506,48.03322],[7.71504,48.03322],[7.71503,48.03322],[7.71431,48.03312],[7.71382,48.03305],[7.71369,48.03303],[7.71372,48.03315],[7.71388,48.03381],[7.71383,48.03382],[7.71381,48.03382],[7.71377,48.03383],[7.71282,48.03395],[7.71279,48.03395],[7.71275,48.03396],[7.71265,48.03381],[7.71259,48.03383],[7.71236,48.0339],[7.71227,48.03393],[7.71177,48.03409],[7.71134,48.03422],[7.71133,48.03422],[7.71132,48.03423],[7.71028,48.03457],[7.71022,48.0346],[7.71019,48.03461],[7.70966,48.03484],[7.70915,48.03502],[7.70912,48.03503],[7.70841,48.0353],[7.70792,48.0349],[7.70772,48.03473],[7.70722,48.03439],[7.70755,48.03422],[7.70672,48.03319],[7.70692,48.03309],[7.70666,48.03277],[7.7063,48.03236],[7.70555,48.0317],[7.70479,48.03081],[7.70478,48.03081],[7.70487,48.03078],[7.70524,48.03067],[7.70516,48.0306],[7.70494,48.03028],[7.70479,48.02997],[7.70478,48.02994],[7.70474,48.02984],[7.70471,48.02971],[7.7042,48.02925],[7.70424,48.02912],[7.70418,48.02891],[7.704,48.02889],[7.70354,48.02881],[7.70292,48.02829],[7.70258,48.0281],[7.70234,48.02788],[7.70217,48.02777],[7.70226,48.02753],[7.70273,48.02753],[7.703,48.0271],[7.70295,48.02703],[7.70238,48.02689],[7.70183,48.0269],[7.70168,48.02676],[7.70163,48.02655],[7.70176,48.02629],[7.70196,48.02616],[7.70243,48.02611],[7.70244,48.02602],[7.70302,48.02608],[7.70335,48.02601],[7.70344,48.02596],[7.70357,48.0253],[7.70377,48.02513],[7.70376,48.02499],[7.70376,48.02494],[7.70372,48.02403],[7.70371,48.02399],[7.7037,48.02395],[7.70369,48.0239],[7.70361,48.02374],[7.7035,48.02356],[7.70333,48.02337],[7.7033,48.02334],[7.70329,48.02333],[7.70401,48.02312],[7.70325,48.02192],[7.70325,48.02192],[7.70305,48.0216],[7.70294,48.02146],[7.70296,48.02145],[7.70309,48.02144],[7.70343,48.02143],[7.70391,48.02143],[7.704,48.02143],[7.70399,48.0214],[7.70396,48.02134],[7.70375,48.0205],[7.70458,48.02038],[7.70453,48.02028],[7.70422,48.01971],[7.70382,48.01912],[7.70381,48.01909],[7.70362,48.01909],[7.70361,48.01869],[7.7036,48.01865],[7.70456,48.01854],[7.70454,48.01852],[7.70401,48.01786],[7.70401,48.01785],[7.704,48.01784],[7.70499,48.01756],[7.70495,48.01752],[7.70428,48.01675],[7.70425,48.01672],[7.70422,48.01669],[7.70586,48.01631],[7.70602,48.01626],[7.70512,48.01544],[7.70537,48.01529],[7.70566,48.01519],[7.70553,48.01506],[7.70552,48.01482],[7.70543,48.01454],[7.70533,48.01431],[7.70556,48.01412],[7.70575,48.01404],[7.70529,48.01308],[7.70488,48.01223],[7.7047,48.01183],[7.70487,48.0118],[7.70601,48.01161],[7.70684,48.01139],[7.70748,48.01122],[7.70789,48.0112],[7.70815,48.01124],[7.70816,48.01124],[7.70821,48.01122],[7.70828,48.0112],[7.70838,48.01118],[7.70842,48.01113],[7.70841,48.01103],[7.70771,48.0108],[7.70525,48.00996],[7.70514,48.00992],[7.70212,48.009],[7.70205,48.00902],[7.70082,48.00853],[7.6997,48.00805],[7.69919,48.00847],[7.69707,48.00728],[7.69636,48.0069],[7.69581,48.00654],[7.69537,48.00613],[7.69527,48.00601],[7.69502,48.00575],[7.69491,48.00565],[7.69485,48.0056],[7.69451,48.00548],[7.69431,48.00548],[7.69426,48.00537],[7.69408,48.00508],[7.69404,48.005],[7.69403,48.00493],[7.69389,48.00463],[7.69327,48.00469],[7.69321,48.00445],[7.69337,48.00443],[7.69397,48.00435],[7.69395,48.00431],[7.69386,48.00414],[7.69384,48.0041],[7.69374,48.00389],[7.69372,48.00386],[7.69344,48.00382],[7.69323,48.00378],[7.6928,48.00364],[7.69221,48.0034],[7.6917,48.00322],[7.69119,48.00301],[7.68978,48.00246],[7.68931,48.00224],[7.68899,48.00209],[7.68895,48.00204],[7.68876,48.00195],[7.68835,48.00171],[7.68815,48.00156],[7.68789,48.00137],[7.68761,48.00119],[7.68734,48.00102],[7.68713,48.00083],[7.68667,48.00046],[7.68638,48.00028],[7.68612,48.00012],[7.68583,47.99998],[7.68549,47.99982],[7.68517,47.99967],[7.68513,47.99971],[7.68462,47.99951],[7.68357,47.9991],[7.68272,47.99876],[7.68273,47.99872],[7.68246,47.99863],[7.68227,47.99857],[7.6821,47.99848],[7.68181,47.99832],[7.68179,47.99834],[7.68177,47.99835],[7.68154,47.99821],[7.68099,47.99781],[7.68104,47.99779],[7.68041,47.99726],[7.68038,47.99727],[7.67991,47.99685],[7.67962,47.99659],[7.67966,47.99654],[7.67915,47.99606],[7.67897,47.99579],[7.67891,47.99581],[7.67873,47.99555],[7.67848,47.99524],[7.6784,47.99497],[7.67837,47.99488],[7.67829,47.99474],[7.67831,47.99472],[7.67852,47.99404],[7.67914,47.99341],[7.67969,47.99301],[7.67939,47.99288],[7.67925,47.99256],[7.67912,47.99214],[7.67879,47.99166],[7.67897,47.99163],[7.67946,47.99152],[7.67972,47.99147],[7.67967,47.99135],[7.67966,47.99131],[7.6798,47.99126],[7.68036,47.99107],[7.68049,47.99101],[7.68062,47.99093],[7.68116,47.99063],[7.6812,47.99059],[7.68144,47.99046],[7.6809,47.98994],[7.68139,47.98975],[7.68213,47.98918],[7.68243,47.98941],[7.68274,47.98964],[7.683,47.98957],[7.68363,47.98933],[7.68353,47.98924],[7.68343,47.98912],[7.68401,47.98886],[7.68372,47.98851],[7.68376,47.9885],[7.68376,47.98849],[7.68408,47.98833],[7.68427,47.98823],[7.68444,47.98825],[7.68488,47.98807],[7.68477,47.98796],[7.68454,47.98775],[7.68436,47.98752],[7.68387,47.98704],[7.68368,47.98705],[7.68366,47.98692],[7.68357,47.98676],[7.68349,47.98657],[7.68341,47.98635],[7.68346,47.9863],[7.6833,47.98594],[7.68325,47.98578],[7.68312,47.98541],[7.68294,47.98502],[7.68282,47.98478],[7.68285,47.98477],[7.68334,47.98466],[7.68312,47.98432],[7.68292,47.98393],[7.68286,47.98382],[7.68283,47.98375],[7.68265,47.98359],[7.68251,47.98342],[7.68248,47.98341],[7.6824,47.98337],[7.68227,47.9833],[7.68217,47.98325],[7.68199,47.98332],[7.68191,47.98337],[7.68187,47.98332],[7.68182,47.98328],[7.68181,47.98326],[7.68172,47.98329],[7.68138,47.9834],[7.68115,47.98348],[7.68089,47.98356],[7.68071,47.98349],[7.68066,47.98347],[7.68051,47.98342],[7.68027,47.98326],[7.68022,47.98321],[7.68014,47.98299],[7.68013,47.98293],[7.68014,47.98276],[7.68017,47.98263],[7.68016,47.98249],[7.68019,47.98229],[7.68017,47.98211],[7.67992,47.98157],[7.67986,47.98145],[7.67959,47.98076],[7.67956,47.9807],[7.67943,47.98081],[7.67927,47.98061],[7.67919,47.98048],[7.67891,47.98018],[7.67859,47.9797],[7.67842,47.9794],[7.67826,47.97902],[7.67816,47.97863],[7.67812,47.97835],[7.67849,47.97822],[7.67894,47.97805],[7.67895,47.97803],[7.67908,47.97781],[7.67909,47.97781],[7.67889,47.97732],[7.67884,47.9772],[7.67879,47.97708],[7.67877,47.97694],[7.67879,47.97689],[7.67881,47.97682],[7.67866,47.97682],[7.67856,47.97682],[7.67842,47.97681],[7.67837,47.97681],[7.6783,47.97678],[7.67828,47.97671],[7.67825,47.97656],[7.67826,47.97643],[7.67827,47.97632],[7.67835,47.97615],[7.6784,47.97609],[7.67853,47.97591],[7.67851,47.97591],[7.67812,47.9758],[7.67805,47.97578],[7.67763,47.97567],[7.67782,47.97546],[7.67813,47.97523],[7.67842,47.97509],[7.67848,47.97506],[7.67842,47.97504],[7.67828,47.975],[7.67815,47.97496],[7.67808,47.97493],[7.67802,47.97492],[7.67801,47.97491],[7.67788,47.97487],[7.6778,47.97484],[7.67771,47.97483],[7.6773,47.97476],[7.67717,47.97474],[7.67707,47.97482],[7.67691,47.97488],[7.6766,47.97465],[7.67658,47.97462],[7.67645,47.97457],[7.67645,47.97457],[7.676,47.97442],[7.67588,47.97439],[7.67584,47.97437],[7.67557,47.97429],[7.6755,47.97427],[7.67531,47.97424],[7.67506,47.97435],[7.67481,47.97437],[7.67476,47.97437],[7.6747,47.97437],[7.67462,47.97438],[7.67393,47.97433],[7.67365,47.97433],[7.67348,47.97424],[7.67246,47.97412],[7.67129,47.97407],[7.67125,47.97407],[7.6714,47.97386],[7.67028,47.97377],[7.67009,47.97396],[7.66909,47.97355],[7.66928,47.9733],[7.66936,47.97318],[7.66922,47.97322],[7.66907,47.97326],[7.66757,47.97363],[7.66756,47.97361],[7.66713,47.97289],[7.66711,47.97286],[7.66695,47.97256],[7.66687,47.97233],[7.66669,47.9723],[7.66676,47.9721],[7.66679,47.97197],[7.66662,47.97154],[7.66658,47.97139],[7.66654,47.97122],[7.66609,47.97128],[7.66586,47.9709],[7.66544,47.97041],[7.66563,47.97033],[7.66535,47.97001],[7.66533,47.96999],[7.66531,47.96997],[7.66493,47.97004],[7.66472,47.97006],[7.66433,47.96864],[7.66406,47.96866],[7.66373,47.96786],[7.66393,47.96783],[7.66391,47.96781],[7.66389,47.96776],[7.66371,47.9674],[7.66327,47.96747],[7.66304,47.96698],[7.66279,47.96663],[7.66286,47.96661],[7.66288,47.9666],[7.6629,47.9666],[7.66301,47.96656],[7.66201,47.96565],[7.66475,47.96508],[7.66502,47.9649],[7.66513,47.9648],[7.66564,47.96438],[7.66807,47.96246],[7.67008,47.9643],[7.67008,47.9643],[7.67013,47.9643],[7.67138,47.96425],[7.67263,47.96326],[7.67287,47.963],[7.67334,47.96247],[7.67358,47.96224],[7.67388,47.96204],[7.67556,47.96091],[7.6756,47.96088],[7.67549,47.96082],[7.67554,47.9608],[7.67564,47.96072],[7.67614,47.96034],[7.67756,47.95924],[7.67762,47.95929],[7.67841,47.95995],[7.67918,47.96057],[7.67951,47.96088],[7.68135,47.96149],[7.68136,47.9615],[7.68141,47.96152],[7.68342,47.96227],[7.68366,47.96228],[7.68368,47.96228],[7.6837,47.96228],[7.68381,47.96229],[7.68471,47.96202],[7.68664,47.96144],[7.68669,47.96142],[7.6878,47.96109],[7.6888,47.96257],[7.68937,47.96347],[7.68942,47.96354],[7.69015,47.9634],[7.69062,47.96328],[7.69072,47.96326],[7.69097,47.9632],[7.69227,47.96288],[7.69245,47.96282],[7.69365,47.9625],[7.69386,47.96245],[7.69462,47.96225],[7.69489,47.96217],[7.69522,47.96206],[7.69546,47.96197],[7.69568,47.96185],[7.69629,47.9614],[7.69653,47.9612],[7.69666,47.96109],[7.69713,47.96073],[7.69759,47.96033],[7.69787,47.96016],[7.69799,47.96009],[7.69802,47.96007],[7.69814,47.96],[7.69865,47.95969],[7.70373,47.962],[7.70473,47.96247],[7.7048,47.9625],[7.70483,47.96251],[7.70513,47.96259],[7.70567,47.96281],[7.70754,47.9637],[7.709,47.96452],[7.70993,47.96505],[7.71018,47.9652],[7.71046,47.96537],[7.71222,47.96622],[7.71348,47.96682],[7.71545,47.96796],[7.7168,47.96868],[7.71713,47.96893],[7.71727,47.96905],[7.71869,47.96878],[7.71915,47.96934],[7.7196,47.96993],[7.71971,47.97008],[7.71981,47.97029],[7.72021,47.9706],[7.72066,47.97085],[7.72089,47.97096],[7.72117,47.97114],[7.72142,47.9713],[7.72171,47.97149],[7.72206,47.97175],[7.72237,47.97198],[7.72235,47.97201],[7.72227,47.97209],[7.72217,47.97219],[7.72207,47.97231],[7.72205,47.97234],[7.72201,47.97239],[7.72197,47.97243],[7.72188,47.97254],[7.72186,47.97256],[7.72181,47.97263],[7.72298,47.97333],[7.72301,47.97334],[7.72348,47.97362],[7.72349,47.97363],[7.72359,47.97369],[7.72367,47.97374],[7.72381,47.97383],[7.72398,47.97392],[7.72404,47.97397],[7.72503,47.97456],[7.72507,47.97458],[7.72509,47.97459],[7.72513,47.97462],[7.72423,47.97524],[7.72406,47.97536],[7.72402,47.97539],[7.72356,47.97571],[7.72375,47.97572],[7.72395,47.97577],[7.72431,47.97562],[7.72432,47.97561],[7.7244,47.97558],[7.72441,47.97558],[7.72518,47.97608],[7.72553,47.97636],[7.72555,47.97638],[7.72658,47.97721],[7.7267,47.97716],[7.72715,47.97763],[7.72722,47.9776],[7.7275,47.97796],[7.72752,47.97798],[7.72763,47.97812],[7.7285,47.97745],[7.72887,47.9772],[7.72919,47.97706],[7.73078,47.97814],[7.73095,47.97806],[7.7312,47.97787],[7.73123,47.97785],[7.73133,47.97777],[7.73167,47.97801],[7.73254,47.97863],[7.73284,47.97881],[7.73306,47.97892],[7.73328,47.97897],[7.73347,47.97901],[7.73378,47.97904],[7.73437,47.97907],[7.73498,47.97922],[7.73532,47.97933],[7.73575,47.97961],[7.73608,47.97994],[7.7363,47.98008],[7.73678,47.98012],[7.73698,47.98012],[7.738,47.9801],[7.73857,47.98009],[7.73927,47.98006],[7.73943,47.97994],[7.73995,47.9799],[7.74039,47.97991],[7.74084,47.97988],[7.74083,47.97974],[7.74162,47.97967],[7.74215,47.97963],[7.74231,47.97956],[7.74324,47.97924],[7.7435,47.97916],[7.74445,47.97889],[7.74566,47.97869],[7.74701,47.97874],[7.74822,47.9789],[7.74943,47.97921],[7.75005,47.97936],[7.75245,47.97981],[7.75424,47.98016],[7.75591,47.98043],[7.75678,47.98052],[7.75512,47.9788],[7.75596,47.97881],[7.75639,47.97872],[7.75765,47.97838],[7.76009,47.97765],[7.76242,47.97704],[7.76337,47.97681],[7.76572,47.97702],[7.76733,47.97808],[7.76794,47.97846],[7.76795,47.97847],[7.768,47.97844],[7.76808,47.97841],[7.76991,47.97762],[7.771,47.97663],[7.77105,47.97658],[7.77184,47.97584],[7.77203,47.97566],[7.77207,47.97564],[7.77212,47.97563],[7.77218,47.97564],[7.77265,47.97544],[7.77228,47.9749],[7.77627,47.97387],[7.77608,47.97339],[7.77582,47.97271],[7.77789,47.97218],[7.77792,47.97217],[7.77806,47.97215],[7.77818,47.97207],[7.77996,47.97094],[7.78028,47.97074],[7.78039,47.97066],[7.78061,47.97058],[7.78111,47.97037],[7.78164,47.97039],[7.78202,47.9704],[7.78209,47.97046],[7.78277,47.97008],[7.78289,47.97016],[7.78342,47.96989],[7.78348,47.96986],[7.78359,47.96993],[7.78392,47.96974],[7.78426,47.96997],[7.78438,47.96991],[7.78441,47.96988],[7.78441,47.96983],[7.78496,47.96947],[7.78514,47.96967],[7.78566,47.96934],[7.78579,47.96944],[7.78592,47.96953],[7.78645,47.96919],[7.7866,47.96924],[7.78669,47.96928],[7.78693,47.96935],[7.78698,47.96927],[7.78737,47.96911],[7.78747,47.9691],[7.78769,47.96909],[7.78779,47.96908],[7.78778,47.96904],[7.78802,47.96899],[7.78875,47.96882],[7.79055,47.96885],[7.79217,47.96836],[7.79563,47.96627],[7.79758,47.96564],[7.7993,47.96527],[7.80044,47.96455],[7.80117,47.96435],[7.80214,47.96408],[7.80444,47.96433],[7.80527,47.96446],[7.80613,47.96463],[7.80625,47.96477],[7.80659,47.9651],[7.80676,47.96528],[7.80703,47.9654],[7.80738,47.96556],[7.80763,47.9657],[7.80906,47.9659],[7.80957,47.96608],[7.81018,47.96633],[7.8115,47.96691],[7.81205,47.96713],[7.81314,47.96771],[7.81658,47.96766],[7.81794,47.9686],[7.81869,47.97018],[7.82007,47.97048],[7.82021,47.9706],[7.82051,47.97085],[7.82102,47.97129],[7.82129,47.97151],[7.82188,47.97188],[7.82258,47.97231],[7.82249,47.97237],[7.82313,47.97275],[7.8233,47.9727],[7.82361,47.97272],[7.82434,47.97251],[7.8248,47.97246],[7.82492,47.97241],[7.82496,47.97234],[7.82504,47.9723],[7.82536,47.97222],[7.82546,47.9728],[7.8256,47.97275],[7.82568,47.97272],[7.82576,47.97266],[7.82601,47.97254],[7.82614,47.97254],[7.82627,47.97248],[7.82637,47.97246],[7.82645,47.97243],[7.82652,47.97228],[7.82659,47.97218],[7.82661,47.97216],[7.82748,47.97321],[7.82836,47.97293],[7.8284,47.97292],[7.82891,47.97288],[7.82995,47.9728],[7.83002,47.9728],[7.8301,47.97279],[7.83044,47.97276],[7.83125,47.97267],[7.83188,47.97258],[7.83236,47.97259],[7.83531,47.97242],[7.83651,47.97256],[7.83678,47.97213],[7.83732,47.97133],[7.83743,47.97116],[7.83666,47.96942],[7.83566,47.96812],[7.83463,47.9666],[7.83587,47.96625],[7.83743,47.96567],[7.8394,47.96387],[7.84124,47.96406],[7.84297,47.9641],[7.84337,47.96392],[7.84407,47.96375],[7.84695,47.96243],[7.84712,47.96232],[7.84735,47.96221],[7.84771,47.96206],[7.84825,47.96181],[7.84843,47.96172],[7.84853,47.96168],[7.84861,47.96164],[7.84874,47.96128],[7.8489,47.96081],[7.84894,47.96044],[7.84874,47.95957],[7.8486,47.95883],[7.84854,47.95847],[7.84864,47.95818],[7.84882,47.95778],[7.84909,47.95718],[7.84923,47.95695],[7.8493,47.95683],[7.84949,47.95673],[7.85013,47.9566],[7.85041,47.95653],[7.85061,47.95648],[7.851,47.95629],[7.85224,47.95583],[7.85296,47.95542],[7.85334,47.95526],[7.85367,47.95508],[7.85391,47.95492],[7.85405,47.95483],[7.85414,47.95477],[7.85415,47.95468],[7.85397,47.95417],[7.85395,47.95396],[7.85403,47.95353],[7.85405,47.95324],[7.854,47.95289],[7.85398,47.95268],[7.85399,47.95255],[7.85432,47.95216],[7.85454,47.9519],[7.8549,47.95144],[7.8551,47.95121],[7.85526,47.95096],[7.85542,47.95067],[7.85556,47.95042],[7.85568,47.95026],[7.85568,47.95009],[7.85592,47.95001],[7.85626,47.94978],[7.85675,47.94954],[7.8575,47.94919],[7.858,47.949],[7.85832,47.94892],[7.85877,47.94897],[7.8594,47.94917],[7.8597,47.94922],[7.85998,47.94923],[7.86038,47.94931],[7.86092,47.9495],[7.8614,47.94962],[7.862,47.94978],[7.86245,47.94989],[7.863,47.95001],[7.8636,47.95012],[7.86467,47.95011],[7.86561,47.9501],[7.86619,47.95015],[7.86654,47.95019],[7.86671,47.94979],[7.86935,47.94982],[7.86947,47.95028],[7.86914,47.95051],[7.86887,47.9507],[7.86873,47.95087],[7.86866,47.95102],[7.87116,47.95129],[7.87299,47.95047],[7.87343,47.95025],[7.87409,47.9499],[7.87435,47.94976],[7.87468,47.94958],[7.87508,47.94938],[7.87542,47.94918],[7.8756,47.94907],[7.87583,47.94902],[7.87614,47.949],[7.87684,47.94898],[7.87736,47.94897],[7.87757,47.94895],[7.87777,47.9489],[7.8782,47.94875],[7.87863,47.94861],[7.87878,47.94855],[7.87885,47.94846],[7.87897,47.94825],[7.87911,47.94792],[7.87922,47.94776],[7.87934,47.9476],[7.87928,47.94741],[7.87919,47.94721],[7.87903,47.94689],[7.87894,47.94669],[7.87885,47.94647],[7.87878,47.94633],[7.87863,47.94617],[7.87849,47.94598],[7.87838,47.94585],[7.87818,47.94564],[7.87824,47.94539],[7.87828,47.94517],[7.87834,47.94502],[7.87842,47.94485],[7.87845,47.94481],[7.87848,47.94476],[7.87855,47.94455],[7.87859,47.94441],[7.8786,47.94425],[7.87862,47.9441],[7.87866,47.94396],[7.87872,47.94381],[7.87879,47.94368],[7.87889,47.94353],[7.87892,47.94338],[7.87884,47.94322],[7.87869,47.94306],[7.8785,47.94289],[7.8783,47.94279],[7.87812,47.94272],[7.87795,47.94263],[7.87782,47.94252],[7.87764,47.94232],[7.8775,47.94219],[7.8774,47.94202],[7.8773,47.9418],[7.87724,47.9416],[7.87721,47.94145],[7.87716,47.94128],[7.877,47.94101],[7.87688,47.94086],[7.87673,47.94068],[7.87659,47.94048],[7.87648,47.94034],[7.87648,47.94028],[7.8764,47.94021],[7.87696,47.94007],[7.87798,47.94006],[7.87758,47.93926],[7.8774,47.93869],[7.87732,47.93854],[7.8773,47.93849],[7.87727,47.93844],[7.87722,47.93831],[7.87721,47.93827],[7.87722,47.93822],[7.87742,47.93794],[7.87745,47.93788],[7.87751,47.93776],[7.87754,47.93767],[7.87756,47.93747],[7.87759,47.93728],[7.87757,47.93712],[7.87752,47.93695],[7.87751,47.93682],[7.87747,47.93654],[7.87747,47.93649],[7.87747,47.93644],[7.87746,47.93628],[7.87743,47.93614],[7.8774,47.93604],[7.87737,47.93591],[7.87719,47.9353],[7.8771,47.93518],[7.87689,47.93489],[7.87669,47.93462],[7.87655,47.93436],[7.87633,47.93408],[7.87611,47.93372],[7.87595,47.93348],[7.87577,47.93279],[7.87574,47.9327],[7.87573,47.93265],[7.87556,47.93201],[7.87504,47.93146],[7.875,47.93142],[7.87497,47.93138],[7.87488,47.93129],[7.87486,47.93124],[7.8738,47.93118],[7.87251,47.93229],[7.87232,47.9322],[7.87213,47.93211],[7.87197,47.93206],[7.87176,47.93207],[7.87149,47.93216],[7.87119,47.93229],[7.87082,47.93251],[7.87046,47.93274],[7.8702,47.93289],[7.86999,47.93307],[7.86999,47.93309],[7.87015,47.93353],[7.86888,47.93389],[7.86862,47.93374],[7.86797,47.93295],[7.86772,47.93219],[7.8677,47.93142],[7.86791,47.93105],[7.86871,47.93086],[7.86817,47.93027],[7.86846,47.92962],[7.86771,47.92932],[7.86743,47.92851],[7.86648,47.9288],[7.86606,47.92864],[7.86589,47.92848],[7.86578,47.92829],[7.86577,47.92773],[7.86624,47.9269],[7.86606,47.92609],[7.8663,47.92552],[7.86725,47.92491],[7.86795,47.92431],[7.86808,47.92388],[7.86777,47.92345],[7.86752,47.92349],[7.86732,47.92359],[7.86681,47.9237],[7.86653,47.92393],[7.86588,47.92417],[7.86559,47.92418],[7.86541,47.9243],[7.86477,47.92454],[7.86473,47.92456],[7.86472,47.9244],[7.8647,47.92409],[7.86458,47.92388],[7.86442,47.92376],[7.86413,47.92371],[7.86386,47.92377],[7.86361,47.9238],[7.86339,47.92385],[7.86322,47.92388],[7.86299,47.92392],[7.86276,47.92391],[7.8626,47.92389],[7.8625,47.92384],[7.86246,47.92373],[7.86252,47.92351],[7.86253,47.92333],[7.86259,47.92315],[7.86275,47.92298],[7.86288,47.92282],[7.86298,47.92268],[7.86299,47.92249],[7.86284,47.92215],[7.86273,47.92182],[7.86269,47.92149],[7.86265,47.92127],[7.86259,47.92109],[7.86251,47.92093],[7.86248,47.9208],[7.86258,47.92064],[7.86268,47.92047],[7.8627,47.9203],[7.86267,47.92012],[7.86272,47.91994],[7.86289,47.91975],[7.86314,47.91953],[7.86329,47.9193],[7.86337,47.91907],[7.86346,47.91887],[7.86349,47.91869],[7.86346,47.91851],[7.86343,47.91821],[7.86338,47.91803],[7.86341,47.91782],[7.86363,47.91751],[7.86407,47.91716],[7.86446,47.91688],[7.86482,47.91667],[7.86421,47.9164],[7.86374,47.91617],[7.86301,47.91588],[7.86236,47.91565],[7.86245,47.9153],[7.86247,47.91495],[7.8625,47.91466],[7.86257,47.91453],[7.86273,47.91436],[7.86284,47.91423],[7.86288,47.91402],[7.86289,47.91381],[7.86296,47.91348],[7.86304,47.91325],[7.86365,47.91318],[7.86407,47.91312],[7.8643,47.91309],[7.86452,47.91293],[7.86508,47.91269],[7.86571,47.91235],[7.86597,47.91215],[7.86613,47.91194],[7.86628,47.91172],[7.86633,47.91158],[7.86647,47.91154],[7.8668,47.91144],[7.86687,47.91128],[7.86694,47.9111],[7.86701,47.91095],[7.86703,47.91082],[7.86718,47.91067],[7.8673,47.91053],[7.86742,47.91042],[7.8675,47.91026],[7.86763,47.91003],[7.8678,47.90977],[7.86792,47.90943],[7.86796,47.90927],[7.86833,47.90879],[7.86925,47.90809],[7.86956,47.90782],[7.86974,47.90759],[7.87047,47.90594],[7.87066,47.9057],[7.8715,47.90451],[7.87332,47.90395],[7.87498,47.90358],[7.87503,47.90361],[7.87731,47.90381],[7.87764,47.90386],[7.87857,47.90398],[7.87925,47.90399],[7.87978,47.90402],[7.88038,47.90409],[7.88129,47.9042],[7.88216,47.90429],[7.88243,47.90428],[7.88269,47.90427],[7.8831,47.90424],[7.88323,47.90422],[7.88335,47.9042],[7.88398,47.90409],[7.88446,47.90396],[7.88487,47.9041],[7.8861,47.90447],[7.88696,47.90469],[7.88749,47.90487],[7.88811,47.90512],[7.88833,47.9052],[7.88874,47.90537],[7.88902,47.90548],[7.8892,47.90558],[7.88994,47.90586],[7.89081,47.90626],[7.8916,47.90684],[7.89213,47.90737],[7.8924,47.9078],[7.8925,47.90828],[7.8928,47.90993],[7.89363,47.91017],[7.89481,47.91032],[7.89638,47.91066],[7.89693,47.91078],[7.89799,47.91134],[7.89822,47.91163],[7.89846,47.91194],[7.90009,47.91192],[7.90074,47.91201],[7.90175,47.91215],[7.9028,47.91233]]]}}]}